2026-027B               
1 67747U 26027B   26056.30644644  .00008817  00000+0  44213-3 0  9998
2 67747  97.4875 185.4548 0009583 242.3133 117.7128 15.17536597  1985
2026-027C               
1 67748U 26027C   26056.30541094  .00006317  00000+0  31704-3 0  9998
2 67748  97.4889 185.4583 0009934 245.2298 114.7903 15.17623081  1987
2026-027D               
1 67749U 26027D   26056.30389487  .00010398  00000+0  51600-3 0  9996
2 67749  97.4882 185.4595 0009743 250.0704 109.9481 15.17852846  1933
2026-027E               
1 67750U 26027E   26056.30384663  .00008925  00000+0  44366-3 0  9993
2 67750  97.4893 185.4616 0008887 251.4399 108.5870 15.17841646  1982
2026-027F               
1 67751U 26027F   26056.30302091  .00014702  00000+0  72437-3 0  9999
2 67751  97.4893 185.4630 0010079 251.2128 108.8013 15.18013582  1986
2026-027G               
1 67752U 26027G   26056.30309666  .00009369  00000+0  46427-3 0  9998
2 67752  97.4888 185.4614 0009202 253.8302 106.1919 15.17936457  1981
2026-027H               
1 67753U 26027H   26056.27024691  .00362159  23606-5  62454-3 0  9997
2 67753  97.5124 186.3638 0249518 290.9117  66.5597 15.64869970  2039
2026-027J               
1 67754U 26027J   26056.28827139  .00928185  24107-5  12374-2 0  9996
2 67754  97.5084 186.4922 0208969 289.6466  68.2354 15.76671911  1981
2026-028A               
1 67756U 26028A   26055.28419698 -.00000189  00000+0  00000+0 0  9991
2 67756   0.5020 288.8646 0042040 229.9312 201.3555  0.99526639   134
KUIPER-00159            
1 67764U 26030A   26056.20073682  .00025169  00000+0  73545-3 0  9997
2 67764  51.8856 279.3655 0004059  16.2038 343.9077 15.35134248  3170
KUIPER-00160            
1 67765U 26030B   26056.20140371  .00028116  00000+0  82171-3 0  9998
2 67765  51.8825 279.3648 0004339  25.5552 334.5647 15.35066376  3179
KUIPER-00177            
1 67766U 26030C   26056.19390136  .00024708  00000+0  70484-3 0  9990
2 67766  51.8836 279.3196 0000633  70.5432 289.5622 15.35904219  3179
