CCSDS_OMM_VERS = 2.0
CREATION_DATE  = 
ORIGINATOR     = 

OBJECT_NAME    = 2026-027B
OBJECT_ID      = 2026-027B
CENTER_NAME    = EARTH
REF_FRAME      = TEME
TIME_SYSTEM    = UTC
MEAN_ELEMENT_THEORY = SGP/SGP4

EPOCH          = 2026-02-25T07:21:16.972416
MEAN_MOTION    = 15.17536597
ECCENTRICITY   = .00095836
INCLINATION    = 97.4875
RA_OF_ASC_NODE = 185.4548
ARG_OF_PERICENTER = 242.3133
MEAN_ANOMALY   = 117.7128

EPHEMERIS_TYPE = 0
CLASSIFICATION_TYPE = U
NORAD_CAT_ID   = 67747
ELEMENT_SET_NO = 999
REV_AT_EPOCH   = 198
BSTAR          = .4421266E-3
MEAN_MOTION_DOT = .8817E-4
MEAN_MOTION_DDOT = 0

CCSDS_OMM_VERS = 2.0
CREATION_DATE  = 
ORIGINATOR     = 

OBJECT_NAME    = 2026-027C
OBJECT_ID      = 2026-027C
CENTER_NAME    = EARTH
REF_FRAME      = TEME
TIME_SYSTEM    = UTC
MEAN_ELEMENT_THEORY = SGP/SGP4

EPOCH          = 2026-02-25T07:19:47.505216
MEAN_MOTION    = 15.17623081
ECCENTRICITY   = .00099348
INCLINATION    = 97.4889
RA_OF_ASC_NODE = 185.4583
ARG_OF_PERICENTER = 245.2298
MEAN_ANOMALY   = 114.7903

EPHEMERIS_TYPE = 0
CLASSIFICATION_TYPE = U
NORAD_CAT_ID   = 67748
ELEMENT_SET_NO = 999
REV_AT_EPOCH   = 198
BSTAR          = .31703754E-3
MEAN_MOTION_DOT = .6317E-4
MEAN_MOTION_DDOT = 0

CCSDS_OMM_VERS = 2.0
CREATION_DATE  = 
ORIGINATOR     = 

OBJECT_NAME    = 2026-027D
OBJECT_ID      = 2026-027D
CENTER_NAME    = EARTH
REF_FRAME      = TEME
TIME_SYSTEM    = UTC
MEAN_ELEMENT_THEORY = SGP/SGP4

EPOCH          = 2026-02-25T07:17:36.516768
MEAN_MOTION    = 15.17852846
ECCENTRICITY   = .0009743
INCLINATION    = 97.4882
RA_OF_ASC_NODE = 185.4595
ARG_OF_PERICENTER = 250.0704
MEAN_ANOMALY   = 109.9481

EPHEMERIS_TYPE = 0
CLASSIFICATION_TYPE = U
NORAD_CAT_ID   = 67749
ELEMENT_SET_NO = 999
REV_AT_EPOCH   = 193
BSTAR          = .5159998E-3
MEAN_MOTION_DOT = .10398E-3
MEAN_MOTION_DDOT = 0

CCSDS_OMM_VERS = 2.0
CREATION_DATE  = 
ORIGINATOR     = 

OBJECT_NAME    = 2026-027E
OBJECT_ID      = 2026-027E
CENTER_NAME    = EARTH
REF_FRAME      = TEME
TIME_SYSTEM    = UTC
MEAN_ELEMENT_THEORY = SGP/SGP4

EPOCH          = 2026-02-25T07:17:32.348832
MEAN_MOTION    = 15.17841646
ECCENTRICITY   = .00088872
INCLINATION    = 97.4893
RA_OF_ASC_NODE = 185.4616
ARG_OF_PERICENTER = 251.4399
MEAN_ANOMALY   = 108.5870

EPHEMERIS_TYPE = 0
CLASSIFICATION_TYPE = U
NORAD_CAT_ID   = 67750
ELEMENT_SET_NO = 999
REV_AT_EPOCH   = 198
BSTAR          = .44366181E-3
MEAN_MOTION_DOT = .8925E-4
MEAN_MOTION_DDOT = 0

CCSDS_OMM_VERS = 2.0
CREATION_DATE  = 
ORIGINATOR     = 

OBJECT_NAME    = 2026-027F
OBJECT_ID      = 2026-027F
CENTER_NAME    = EARTH
REF_FRAME      = TEME
TIME_SYSTEM    = UTC
MEAN_ELEMENT_THEORY = SGP/SGP4

EPOCH          = 2026-02-25T07:16:21.006624
MEAN_MOTION    = 15.18013582
ECCENTRICITY   = .00100797
INCLINATION    = 97.4893
RA_OF_ASC_NODE = 185.4630
ARG_OF_PERICENTER = 251.2128
MEAN_ANOMALY   = 108.8013

EPHEMERIS_TYPE = 0
CLASSIFICATION_TYPE = U
NORAD_CAT_ID   = 67751
ELEMENT_SET_NO = 999
REV_AT_EPOCH   = 198
BSTAR          = .72436994E-3
MEAN_MOTION_DOT = .14702E-3
MEAN_MOTION_DDOT = 0

CCSDS_OMM_VERS = 2.0
CREATION_DATE  = 
ORIGINATOR     = 

OBJECT_NAME    = 2026-027G
OBJECT_ID      = 2026-027G
CENTER_NAME    = EARTH
REF_FRAME      = TEME
TIME_SYSTEM    = UTC
MEAN_ELEMENT_THEORY = SGP/SGP4

EPOCH          = 2026-02-25T07:16:27.551424
MEAN_MOTION    = 15.17936457
ECCENTRICITY   = .00092029
INCLINATION    = 97.4888
RA_OF_ASC_NODE = 185.4614
ARG_OF_PERICENTER = 253.8302
MEAN_ANOMALY   = 106.1919

EPHEMERIS_TYPE = 0
CLASSIFICATION_TYPE = U
NORAD_CAT_ID   = 67752
ELEMENT_SET_NO = 999
REV_AT_EPOCH   = 198
BSTAR          = .46426615E-3
MEAN_MOTION_DOT = .9369E-4
MEAN_MOTION_DDOT = 0

CCSDS_OMM_VERS = 2.0
CREATION_DATE  = 
ORIGINATOR     = 

OBJECT_NAME    = 2026-027H
OBJECT_ID      = 2026-027H
CENTER_NAME    = EARTH
REF_FRAME      = TEME
TIME_SYSTEM    = UTC
MEAN_ELEMENT_THEORY = SGP/SGP4

EPOCH          = 2026-02-25T06:29:09.333024
MEAN_MOTION    = 15.64869970
ECCENTRICITY   = .0249518
INCLINATION    = 97.5124
RA_OF_ASC_NODE = 186.3638
ARG_OF_PERICENTER = 290.9117
MEAN_ANOMALY   = 66.5597

EPHEMERIS_TYPE = 0
CLASSIFICATION_TYPE = U
NORAD_CAT_ID   = 67753
ELEMENT_SET_NO = 999
REV_AT_EPOCH   = 203
BSTAR          = .62454169E-3
MEAN_MOTION_DOT = .362159E-2
MEAN_MOTION_DDOT = .2360628E-5

CCSDS_OMM_VERS = 2.0
CREATION_DATE  = 
ORIGINATOR     = 

OBJECT_NAME    = 2026-027J
OBJECT_ID      = 2026-027J
CENTER_NAME    = EARTH
REF_FRAME      = TEME
TIME_SYSTEM    = UTC
MEAN_ELEMENT_THEORY = SGP/SGP4

EPOCH          = 2026-02-25T06:55:06.648096
MEAN_MOTION    = 15.76671911
ECCENTRICITY   = .02089699
INCLINATION    = 97.5084
RA_OF_ASC_NODE = 186.4922
ARG_OF_PERICENTER = 289.6466
MEAN_ANOMALY   = 68.2354

EPHEMERIS_TYPE = 0
CLASSIFICATION_TYPE = U
NORAD_CAT_ID   = 67754
ELEMENT_SET_NO = 999
REV_AT_EPOCH   = 198
BSTAR          = .12374088E-2
MEAN_MOTION_DOT = .928185E-2
MEAN_MOTION_DDOT = .2410692E-5

CCSDS_OMM_VERS = 2.0
CREATION_DATE  = 
ORIGINATOR     = 

OBJECT_NAME    = 2026-028A
OBJECT_ID      = 2026-028A
CENTER_NAME    = EARTH
REF_FRAME      = TEME
TIME_SYSTEM    = UTC
MEAN_ELEMENT_THEORY = SGP/SGP4

EPOCH          = 2026-02-24T06:49:14.619072
MEAN_MOTION    = 0.99526639
ECCENTRICITY   = .00420406
INCLINATION    = 0.5020
RA_OF_ASC_NODE = 288.8646
ARG_OF_PERICENTER = 229.9312
MEAN_ANOMALY   = 201.3555

EPHEMERIS_TYPE = 0
CLASSIFICATION_TYPE = U
NORAD_CAT_ID   = 67756
ELEMENT_SET_NO = 999
REV_AT_EPOCH   = 13
BSTAR          = 0
MEAN_MOTION_DOT = -.189E-5
MEAN_MOTION_DDOT = 0

CCSDS_OMM_VERS = 2.0
CREATION_DATE  = 
ORIGINATOR     = 

OBJECT_NAME    = KUIPER-00159
OBJECT_ID      = 2026-030A
CENTER_NAME    = EARTH
REF_FRAME      = TEME
TIME_SYSTEM    = UTC
MEAN_ELEMENT_THEORY = SGP/SGP4

EPOCH          = 2026-02-25T04:49:03.661248
MEAN_MOTION    = 15.35134248
ECCENTRICITY   = .00040591
INCLINATION    = 51.8856
RA_OF_ASC_NODE = 279.3655
ARG_OF_PERICENTER = 16.2038
MEAN_ANOMALY   = 343.9077

EPHEMERIS_TYPE = 0
CLASSIFICATION_TYPE = U
NORAD_CAT_ID   = 67764
ELEMENT_SET_NO = 999
REV_AT_EPOCH   = 317
BSTAR          = .73544629E-3
MEAN_MOTION_DOT = .25169E-3
MEAN_MOTION_DDOT = 0

CCSDS_OMM_VERS = 2.0
CREATION_DATE  = 
ORIGINATOR     = 

OBJECT_NAME    = KUIPER-00160
OBJECT_ID      = 2026-030B
CENTER_NAME    = EARTH
REF_FRAME      = TEME
TIME_SYSTEM    = UTC
MEAN_ELEMENT_THEORY = SGP/SGP4

EPOCH          = 2026-02-25T04:50:01.280544
MEAN_MOTION    = 15.35066376
ECCENTRICITY   = .0004339
INCLINATION    = 51.8825
RA_OF_ASC_NODE = 279.3648
ARG_OF_PERICENTER = 25.5552
MEAN_ANOMALY   = 334.5647

EPHEMERIS_TYPE = 0
CLASSIFICATION_TYPE = U
NORAD_CAT_ID   = 67765
ELEMENT_SET_NO = 999
REV_AT_EPOCH   = 317
BSTAR          = .82170924E-3
MEAN_MOTION_DOT = .28116E-3
MEAN_MOTION_DDOT = 0

CCSDS_OMM_VERS = 2.0
CREATION_DATE  = 
ORIGINATOR     = 

OBJECT_NAME    = KUIPER-00177
OBJECT_ID      = 2026-030C
CENTER_NAME    = EARTH
REF_FRAME      = TEME
TIME_SYSTEM    = UTC
MEAN_ELEMENT_THEORY = SGP/SGP4

EPOCH          = 2026-02-25T04:39:13.077504
MEAN_MOTION    = 15.35904219
ECCENTRICITY   = .00006337
INCLINATION    = 51.8836
RA_OF_ASC_NODE = 279.3196
ARG_OF_PERICENTER = 70.5432
MEAN_ANOMALY   = 289.5622

EPHEMERIS_TYPE = 0
CLASSIFICATION_TYPE = U
NORAD_CAT_ID   = 67766
ELEMENT_SET_NO = 999
REV_AT_EPOCH   = 317
BSTAR          = .70484143E-3
MEAN_MOTION_DOT = .24708E-3
MEAN_MOTION_DDOT = 0

